[
   {
      "id"  : 278,
      "lat" : 40.7259988,
      "lon" : 16.5756483,
      "tags" : {
               "operator" : "Rega Francesco",
               "ref" : "278",
               "beds" : "6",
               "name" : "Angolo Felice",
               "addr:street" : "Via Ungheria",
               "addr:housenumber" : "8",
               "breakfast"  : "yes",
               "tourism"  : "guest_house"
               }
    }
,
   {
      "id"  : 279,
      "lat" : 40.665452,
      "lon" : 16.6101048,
      "tags" : {
               "operator" : "Ritella Antonia",
               "ref" : "279",
               "beds" : "2",
               "name" : "Belvedere",
               "addr:street" : "Arco del Sedile",
               "addr:housenumber" : "4",
               "breakfast"  : "yes",
               "tourism"  : "guest_house"
               }
    }
,
   {
      "id"  : 280,
      "lat" : 40.666178,
      "lon" : 16.6109311,
      "tags" : {
               "operator" : "Coretti Francesco",
               "ref" : "280",
               "beds" : "8",
               "name" : "Del Castelvecchio",
               "addr:street" : "Salita Castelvecchio",
               "addr:housenumber" : "23",
               "breakfast"  : "yes",
               "tourism"  : "guest_house"
               }
    }
,
   {
      "id"  : 281,
      "lat" : 40.658884,
      "lon" : 16.592437,
      "tags" : {
               "operator" : "Manicone Nicola",
               "ref" : "281",
               "beds" : "4",
               "name" : "Villa Nick House",
               "addr:street" : "C.Da Pozzo Misseo",
               "addr:housenumber" : "",
               "breakfast"  : "yes",
               "tourism"  : "guest_house"
               }
    }
,
   {
      "id"  : 282,
      "lat" : 40.666601,
      "lon" : 16.608135,
      "tags" : {
               "operator" : "Logallo Giovanni",
               "ref" : "282",
               "beds" : "4",
               "name" : "Fiorentini",
               "addr:street" : "Via Fiorentini",
               "addr:housenumber" : "14",
               "breakfast"  : "yes",
               "tourism"  : "guest_house"
               }
    }
,
   {
      "id"  : 283,
      "lat" : 40.6419824,
      "lon" : 16.6227369,
      "tags" : {
               "operator" : "Bruno Vincenzo",
               "ref" : "283",
               "beds" : "3",
               "name" : "Home Sweet Home",
               "addr:street" : "Via dell'ariete",
               "addr:housenumber" : "1",
               "breakfast"  : "yes",
               "tourism"  : "guest_house"
               }
    }
,
   {
      "id"  : 284,
      "lat" : 40.6572151,
      "lon" : 16.6124274,
      "tags" : {
               "operator" : "Pepe Angela",
               "ref" : "284",
               "beds" : "5",
               "name" : "I Tre Fiori",
               "addr:street" : "Via Fosse Ardeatine",
               "addr:housenumber" : "4",
               "breakfast"  : "yes",
               "tourism"  : "guest_house"
               }
    }
,
   {
      "id"  : 285,
      "lat" : 40.6645267,
      "lon" : 16.610666,
      "tags" : {
               "operator" : "Donatella Acito",
               "ref" : "285",
               "beds" : "8",
               "name" : "Il Cortile",
               "addr:street" : "Via San Pietro Caveoso",
               "addr:housenumber" : "55",
               "breakfast"  : "yes",
               "tourism"  : "guest_house"
               }
    }
,
   {
      "id"  : 286,
      "lat" : 40.668078,
      "lon" : 16.6052844,
      "tags" : {
               "operator" : "Angelo Catoggio",
               "ref" : "286",
               "beds" : "6",
               "name" : "Lucana 22",
               "addr:street" : "Via Lucana",
               "addr:housenumber" : "22",
               "breakfast"  : "yes",
               "tourism"  : "guest_house"
               }
    }
,
   {
      "id"  : 287,
      "lat" : 40.6763994,
      "lon" : 16.5732106,
      "tags" : {
               "operator" : "Emanuele Montemurro",
               "ref" : "287",
               "beds" : "4",
               "name" : "Matera",
               "addr:street" : "Via del Commercio",
               "addr:housenumber" : "",
               "breakfast"  : "yes",
               "tourism"  : "guest_house"
               }
    }
,
   {
      "id"  : 288,
      "lat" : 40.6669025,
      "lon" : 16.6045068,
      "tags" : {
               "operator" : "Carbone Maria",
               "ref" : "288",
               "beds" : "4",
               "name" : "Santa Marta",
               "addr:street" : "Via  Lucana",
               "addr:housenumber" : "53",
               "breakfast"  : "yes",
               "tourism"  : "guest_house"
               }
    }
,
   {
      "id"  : 289,
      "lat" : 40.6669499,
      "lon" : 16.6101862,
      "tags" : {
               "operator" : "Maria Torelli",
               "ref" : "289",
               "beds" : "2",
               "name" : "Tre Corone",
               "addr:street" : "Via Sette Dolori",
               "addr:housenumber" : "2",
               "breakfast"  : "yes",
               "tourism"  : "guest_house"
               }
    }
,
   {
      "id"  : 290,
      "lat" : 40.6440597,
      "lon" : 16.6223163,
      "tags" : {
               "operator" : "Di Pede Massimiliano",
               "ref" : "290",
               "beds" : "6",
               "name" : "Villa Rossana",
               "addr:street" : "Via Columella",
               "addr:housenumber" : "10",
               "breakfast"  : "yes",
               "tourism"  : "guest_house"
               }
    }
,
   {
      "id"  : 291,
      "lat" : 40.7096401,
      "lon" : 16.4864765,
      "tags" : {
               "operator" : "Lamacchia Francesco",
               "ref" : "291",
               "beds" : "2",
               "name" : "Al Borghetto",
               "addr:street" : "Borgo  Picciano A",
               "addr:housenumber" : "",
               "breakfast"  : "yes",
               "tourism"  : "guest_house"
               }
    }
,
   {
      "id"  : 292,
      "lat" : 40.6665076,
      "lon" : 16.6113147,
      "tags" : {
               "operator" : "Sinno Patrizia",
               "ref" : "292",
               "beds" : "4",
               "name" : "Al Campanile",
               "addr:street" : "Via Riscatto",
               "addr:housenumber" : "7",
               "breakfast"  : "yes",
               "tourism"  : "guest_house"
               }
    }
,
   {
      "id"  : 293,
      "lat" : 40.6635375,
      "lon" : 16.6075749,
      "tags" : {
               "operator" : "Melodia Francesca",
               "ref" : "293",
               "beds" : "7",
               "name" : "Al Castello",
               "addr:street" : "Via Lanera",
               "addr:housenumber" : "5",
               "breakfast"  : "yes",
               "tourism"  : "guest_house"
               }
    }
,
   {
      "id"  : 294,
      "lat" : 40.6642679,
      "lon" : 16.6036248,
      "tags" : {
               "operator" : "Buono Francesco Paolo",
               "ref" : "294",
               "beds" : "6",
               "name" : "Al Centro B&b",
               "addr:street" : "Via Gramsci",
               "addr:housenumber" : "27",
               "breakfast"  : "yes",
               "tourism"  : "guest_house"
               }
    }
,
   {
      "id"  : 295,
      "lat" : 40.663392,
      "lon" : 16.6113458,
      "tags" : {
               "operator" : "Montemurro Vincenzo E.",
               "ref" : "295",
               "beds" : "4",
               "name" : "Al Convento",
               "addr:street" : "Via Purgatorio Vecchio",
               "addr:housenumber" : "3",
               "breakfast"  : "yes",
               "tourism"  : "guest_house"
               }
    }
,
   {
      "id"  : 296,
      "lat" : 40.661369,
      "lon" : 16.6108069,
      "tags" : {
               "operator" : "Musolino Fabio",
               "ref" : "296",
               "beds" : "8",
               "name" : "Al Vecchio Mulino",
               "addr:street" : "Via Lucana 205/b",
               "addr:housenumber" : "",
               "breakfast"  : "yes",
               "tourism"  : "guest_house"
               }
    }
,
   {
      "id"  : 297,
      "lat" : 40.6572151,
      "lon" : 16.6124274,
      "tags" : {
               "operator" : "Alessandro Montemurro",
               "ref" : "297",
               "beds" : "3",
               "name" : "Alessandro B&b",
               "addr:street" : "Via Fosse Ardeatine",
               "addr:housenumber" : "7",
               "breakfast"  : "yes",
               "tourism"  : "guest_house"
               }
    }
,
   {
      "id"  : 298,
      "lat" : 40.6662804,
      "lon" : 16.6062283,
      "tags" : {
               "operator" : "Conterosito Federica",
               "ref" : "298",
               "beds" : "3",
               "name" : "Amadeus Luxury Home",
               "addr:street" : "Via A. Persio",
               "addr:housenumber" : "2",
               "breakfast"  : "yes",
               "tourism"  : "guest_house"
               }
    }
,
   {
      "id"  : 299,
      "lat" : 40.6901477,
      "lon" : 16.5814859,
      "tags" : {
               "operator" : "Antonio Maragno",
               "ref" : "299",
               "beds" : "6",
               "name" : "Amaranto B&b",
               "addr:street" : "Via Caduti Nassiria",
               "addr:housenumber" : "139",
               "breakfast"  : "yes",
               "tourism"  : "guest_house"
               }
    }
,
   {
      "id"  : 300,
      "lat" : 40.6734,
      "lon" : 16.60121,
      "tags" : {
               "operator" : "Auletta Maria Aurora",
               "ref" : "300",
               "beds" : "3",
               "name" : "Aurora",
               "addr:street" : "Via Guglielmo Marconi",
               "addr:housenumber" : "13",
               "breakfast"  : "yes",
               "tourism"  : "guest_house"
               }
    }
,
   {
      "id"  : 301,
      "lat" : 40.6710809,
      "lon" : 16.5957062,
      "tags" : {
               "operator" : "Di Cuia Angela Saveria",
               "ref" : "301",
               "beds" : null,
               "name" : "B & B Dell'angelo",
               "addr:street" : "C.Da Pedale della Palomba",
               "addr:housenumber" : "",
               "breakfast"  : "yes",
               "tourism"  : "guest_house"
               }
    }
,
   {
      "id"  : 302,
      "lat" : 40.68490445,
      "lon" : 16.58722994,
      "tags" : {
               "operator" : "Anna Maria Berardi",
               "ref" : "302",
               "beds" : "2",
               "name" : "Villa dei Piceni",
               "addr:street" : "Via dei Piceni",
               "addr:housenumber" : "20",
               "breakfast"  : "yes",
               "tourism"  : "guest_house"
               }
    }
,
   {
      "id"  : 305,
      "lat" : 40.6490276,
      "lon" : 16.6252952,
      "tags" : {
               "operator" : "Fiore Antonio",
               "ref" : "305",
               "beds" : "2",
               "name" : "B&b Agna",
               "addr:street" : "Contrada Agna Snc.",
               "addr:housenumber" : "",
               "breakfast"  : "yes",
               "tourism"  : "guest_house"
               }
    }
,
   {
      "id"  : 306,
      "lat" : 40.6602956,
      "lon" : 16.6090475,
      "tags" : {
               "operator" : "Cavone Rosalba",
               "ref" : "306",
               "beds" : "4",
               "name" : "B&b Don Milani",
               "addr:street" : "Via D.L. Milani",
               "addr:housenumber" : "10",
               "breakfast"  : "yes",
               "tourism"  : "guest_house"
               }
    }
,
   {
      "id"  : 307,
      "lat" : 40.669989,
      "lon" : 16.60884,
      "tags" : {
               "operator" : "Teresa Lionetti",
               "ref" : "307",
               "beds" : "2",
               "name" : "B&b Pata'",
               "addr:street" : "Via Santa Cesarea",
               "addr:housenumber" : "10",
               "breakfast"  : "yes",
               "tourism"  : "guest_house"
               }
    }
,
   {
      "id"  : 310,
      "lat" : 40.6710809,
      "lon" : 16.5957062,
      "tags" : {
               "operator" : "Sinno Carmine",
               "ref" : "310",
               "beds" : "4",
               "name" : "Best Value",
               "addr:street" : "Via Fratelli Grimm",
               "addr:housenumber" : "5",
               "breakfast"  : "yes",
               "tourism"  : "guest_house"
               }
    }
,
   {
      "id"  : 311,
      "lat" : 40.6806036,
      "lon" : 16.5838406,
      "tags" : {
               "operator" : "Francesco Paolo Nicoletti",
               "ref" : "311",
               "beds" : "4",
               "name" : "Buon Vento",
               "addr:street" : "Via Gravina",
               "addr:housenumber" : "7",
               "breakfast"  : "yes",
               "tourism"  : "guest_house"
               }
    }
,
   {
      "id"  : 312,
      "lat" : 40.6616999,
      "lon" : 16.6090141,
      "tags" : {
               "operator" : "Andrea Rizzelli",
               "ref" : "312",
               "beds" : "4",
               "name" : "Casa E Bottega",
               "addr:street" : "Via Chiancalata",
               "addr:housenumber" : "5",
               "breakfast"  : "yes",
               "tourism"  : "guest_house"
               }
    }
,
   {
      "id"  : 313,
      "lat" : 40.66654,
      "lon" : 16.6116928,
      "tags" : {
               "operator" : "Provinzano Antonia",
               "ref" : "313",
               "beds" : "4",
               "name" : "Casa Lamanna",
               "addr:street" : "Via San Potito",
               "addr:housenumber" : "43",
               "breakfast"  : "yes",
               "tourism"  : "guest_house"
               }
    }
,
   {
      "id"  : 314,
      "lat" : 40.6673746,
      "lon" : 16.6103511,
      "tags" : {
               "operator" : "Lionetti Giuseppe",
               "ref" : "314",
               "beds" : "6",
               "name" : "Casa Nei Sassi",
               "addr:street" : "Via dei Fiorentini",
               "addr:housenumber" : "72",
               "breakfast"  : "yes",
               "tourism"  : "guest_house"
               }
    }
,
   {
      "id"  : 316,
      "lat" : 40.6715245,
      "lon" : 16.6065459,
      "tags" : {
               "operator" : "Framcesco Festa",
               "ref" : "316",
               "beds" : "4",
               "name" : "Conte Gattini",
               "addr:street" : "Via Laura Battista",
               "addr:housenumber" : "2",
               "breakfast"  : "yes",
               "tourism"  : "guest_house"
               }
    }
,
   {
      "id"  : 317,
      "lat" : 40.6653869,
      "lon" : 16.606358,
      "tags" : {
               "operator" : "Vincenzo Frascella",
               "ref" : "317",
               "beds" : "6",
               "name" : "Da Vinci",
               "addr:street" : "Via Lucana",
               "addr:housenumber" : "101",
               "breakfast"  : "yes",
               "tourism"  : "guest_house"
               }
    }
,
   {
      "id"  : 318,
      "lat" : 40.6686036,
      "lon" : 16.6021741,
      "tags" : {
               "operator" : "Barbosa Cutino Danexys",
               "ref" : "318",
               "beds" : "3",
               "name" : "Dante",
               "addr:street" : "Via Dante",
               "addr:housenumber" : "5",
               "breakfast"  : "yes",
               "tourism"  : "guest_house"
               }
    }
,
   {
      "id"  : 320,
      "lat" : 40.6686766,
      "lon" : 16.6059701,
      "tags" : {
               "operator" : "Michele Guarini",
               "ref" : "320",
               "beds" : "4",
               "name" : "Del Corso",
               "addr:street" : "Via Xxsettembre",
               "addr:housenumber" : "39",
               "breakfast"  : "yes",
               "tourism"  : "guest_house"
               }
    }
,
   {
      "id"  : 321,
      "lat" : 40.665389,
      "lon" : 16.6114459,
      "tags" : {
               "operator" : "Montanaro Anna Maria",
               "ref" : "321",
               "beds" : "4",
               "name" : "Della Torre",
               "addr:street" : "Via Muro",
               "addr:housenumber" : "26",
               "breakfast"  : "yes",
               "tourism"  : "guest_house"
               }
    }
,
   {
      "id"  : 322,
      "lat" : 40.69233962,
      "lon" : 16.59229993,
      "tags" : {
               "operator" : "Francesco P. Manicone",
               "ref" : "322",
               "beds" : "6",
               "name" : "B & B Serritello La Valle",
               "addr:street" : "C.Da Serritellom La Valle",
               "addr:housenumber" : "",
               "breakfast"  : "yes",
               "tourism"  : "guest_house"
               }
    }
,
   {
      "id"  : 323,
      "lat" : 40.6663738,
      "lon" : 16.6075909,
      "tags" : {
               "operator" : "Andrisani Fabio",
               "ref" : "323",
               "beds" : "8",
               "name" : "Domus del Barisano",
               "addr:street" : "Via Lombardi",
               "addr:housenumber" : "16",
               "breakfast"  : "yes",
               "tourism"  : "guest_house"
               }
    }
,
   {
      "id"  : 324,
      "lat" : 40.6602956,
      "lon" : 16.6090475,
      "tags" : {
               "operator" : "Cavone Rosalba",
               "ref" : "324",
               "beds" : "4",
               "name" : "Don Milani",
               "addr:street" : "Via Don L. Milani",
               "addr:housenumber" : "10",
               "breakfast"  : "yes",
               "tourism"  : "guest_house"
               }
    }
,
   {
      "id"  : 326,
      "lat" : 40.6833836,
      "lon" : 16.5792271,
      "tags" : {
               "operator" : "Francesca Tataranni",
               "ref" : "326",
               "beds" : "4",
               "name" : "Edone'",
               "addr:street" : "Via Cilea",
               "addr:housenumber" : "66",
               "breakfast"  : "yes",
               "tourism"  : "guest_house"
               }
    }
,
   {
      "id"  : 327,
      "lat" : 40.6744738,
      "lon" : 16.6017041,
      "tags" : {
               "operator" : "Saluzzi Francesco",
               "ref" : "327",
               "beds" : "4",
               "name" : "Elizabeth",
               "addr:street" : "Via Umbria",
               "addr:housenumber" : "6",
               "breakfast"  : "yes",
               "tourism"  : "guest_house"
               }
    }
,
   {
      "id"  : 328,
      "lat" : 40.6632427,
      "lon" : 16.6123433,
      "tags" : {
               "operator" : "Raffaele Stifano",
               "ref" : "328",
               "beds" : "2",
               "name" : "Fofo'",
               "addr:street" : "Rione Malve",
               "addr:housenumber" : "67",
               "breakfast"  : "yes",
               "tourism"  : "guest_house"
               }
    }
,
   {
      "id"  : 329,
      "lat" : 40.6584495,
      "lon" : 16.6099328,
      "tags" : {
               "operator" : "Roberto Maria Francesca",
               "ref" : "329",
               "beds" : "2",
               "name" : "Francaro'",
               "addr:street" : "Via Morelli",
               "addr:housenumber" : "1",
               "breakfast"  : "yes",
               "tourism"  : "guest_house"
               }
    }
,
   {
      "id"  : 331,
      "lat" : 40.666601,
      "lon" : 16.608135,
      "tags" : {
               "operator" : "Battente Concetta Immacolata",
               "ref" : "331",
               "beds" : "2",
               "name" : "Il Caminetto",
               "addr:street" : "Via Fiorentini",
               "addr:housenumber" : "52",
               "breakfast"  : "yes",
               "tourism"  : "guest_house"
               }
    }
,
   {
      "id"  : 333,
      "lat" : 40.6756892,
      "lon" : 16.5742617,
      "tags" : {
               "operator" : "Dileo Nicla",
               "ref" : "333",
               "beds" : "3",
               "name" : "Il Crusco",
               "addr:street" : "Via dell'agricoltura",
               "addr:housenumber" : "8",
               "breakfast"  : "yes",
               "tourism"  : "guest_house"
               }
    }
,
   {
      "id"  : 336,
      "lat" : 40.6774682,
      "lon" : 16.5792931,
      "tags" : {
               "operator" : "Fedele Giudicepietro",
               "ref" : "336",
               "beds" : "4",
               "name" : "Il Moderno",
               "addr:street" : "Via Cosenza",
               "addr:housenumber" : "70",
               "breakfast"  : "yes",
               "tourism"  : "guest_house"
               }
    }
,
   {
      "id"  : 337,
      "lat" : 40.66444,
      "lon" : 16.603387,
      "tags" : {
               "operator" : "Michele Grossi",
               "ref" : "337",
               "beds" : "3",
               "name" : "Il Picchiolino",
               "addr:street" : "Via Antonio Gramsci",
               "addr:housenumber" : "20",
               "breakfast"  : "yes",
               "tourism"  : "guest_house"
               }
    }
,
   {
      "id"  : 338,
      "lat" : 40.6663864,
      "lon" : 16.6067083,
      "tags" : {
               "operator" : "Angela De Simone",
               "ref" : "338",
               "beds" : "3",
               "name" : "Il Ponticello Ai Sassi",
               "addr:street" : "Via Lombardi",
               "addr:housenumber" : "4",
               "breakfast"  : "yes",
               "tourism"  : "guest_house"
               }
    }
,
   {
      "id"  : 339,
      "lat" : 40.6670941,
      "lon" : 16.6070503,
      "tags" : {
               "operator" : "Gurrado Bruna",
               "ref" : "339",
               "beds" : "2",
               "name" : "Il Portico dei Sassi",
               "addr:street" : "Via Pentasuglia",
               "addr:housenumber" : "8",
               "breakfast"  : "yes",
               "tourism"  : "guest_house"
               }
    }
,
   {
      "id"  : 341,
      "lat" : 40.6697833,
      "lon" : 16.6075564,
      "tags" : {
               "operator" : "Lamacchia Angelo",
               "ref" : "341",
               "beds" : "2",
               "name" : "Il Re Degli Scalzi",
               "addr:street" : "Via F. Paolo Festa",
               "addr:housenumber" : "10",
               "breakfast"  : "yes",
               "tourism"  : "guest_house"
               }
    }
,
   {
      "id"  : 342,
      "lat" : 40.6636504,
      "lon" : 16.6120014,
      "tags" : {
               "operator" : "Paolicelli Luciana",
               "ref" : "342",
               "beds" : "5",
               "name" : "Il Sasso E La Seta",
               "addr:street" : "Rione Malve",
               "addr:housenumber" : "31",
               "breakfast"  : "yes",
               "tourism"  : "guest_house"
               }
    }
,
   {
      "id"  : 344,
      "lat" : 40.6550333,
      "lon" : 16.586422,
      "tags" : {
               "operator" : "Biagio Paolicelli",
               "ref" : "344",
               "beds" : "8",
               "name" : "Il Villino",
               "addr:street" : "Cda . Pozzo Misseo",
               "addr:housenumber" : "",
               "breakfast"  : "yes",
               "tourism"  : "guest_house"
               }
    }
,
   {
      "id"  : 348,
      "lat" : 40.6648188,
      "lon" : 16.6034347,
      "tags" : {
               "operator" : "Anna Miglio",
               "ref" : "348",
               "beds" : "4",
               "name" : "La Casa di Nina",
               "addr:street" : "Vico 2 Passarelli ",
               "addr:housenumber" : "2",
               "breakfast"  : "yes",
               "tourism"  : "guest_house"
               }
    }
,
   {
      "id"  : 349,
      "lat" : 40.6676142,
      "lon" : 16.6041146,
      "tags" : {
               "operator" : "Ciniero Vito Domenico",
               "ref" : "349",
               "beds" : "4",
               "name" : "La Casa di Rosa",
               "addr:street" : "Via Spine Bianche",
               "addr:housenumber" : "8",
               "breakfast"  : "yes",
               "tourism"  : "guest_house"
               }
    }
,
   {
      "id"  : 352,
      "lat" : 40.662352,
      "lon" : 16.597222,
      "tags" : {
               "operator" : "Raucci Giuseppe",
               "ref" : "352",
               "beds" : "6",
               "name" : "La Locanda di Zi Nicola",
               "addr:street" : "Via Annibale di Francia",
               "addr:housenumber" : "9",
               "breakfast"  : "yes",
               "tourism"  : "guest_house"
               }
    }
,
   {
      "id"  : 353,
      "lat" : 40.669989,
      "lon" : 16.60884,
      "tags" : {
               "operator" : "Angela Fontanarosa",
               "ref" : "353",
               "beds" : "3",
               "name" : "La Mansarda Sui Sassi",
               "addr:street" : "Via Santa Cesarea",
               "addr:housenumber" : "36",
               "breakfast"  : "yes",
               "tourism"  : "guest_house"
               }
    }
,
   {
      "id"  : 354,
      "lat" : 40.664793,
      "lon" : 16.611572,
      "tags" : {
               "operator" : "Ramundo Giuseppina",
               "ref" : "354",
               "beds" : "4",
               "name" : "La Piazzetta",
               "addr:street" : "San Pietro Caveoso",
               "addr:housenumber" : "8",
               "breakfast"  : "yes",
               "tourism"  : "guest_house"
               }
    }
,
   {
      "id"  : 356,
      "lat" : 40.6646524,
      "lon" : 16.6097362,
      "tags" : {
               "operator" : "Eliana Viggiani",
               "ref" : "356",
               "beds" : "4",
               "name" : "L'albero di Eliana",
               "addr:street" : "Gradoni Municipio",
               "addr:housenumber" : "14",
               "breakfast"  : "yes",
               "tourism"  : "guest_house"
               }
    }
,
   {
      "id"  : 357,
      "lat" : 40.662543,
      "lon" : 16.610435,
      "tags" : {
               "operator" : "Cataldo Montanaro",
               "ref" : "357",
               "beds" : "2",
               "name" : "Landscape Sassi Matera",
               "addr:street" : "Via Casalnuovo",
               "addr:housenumber" : "173",
               "breakfast"  : "yes",
               "tourism"  : "guest_house"
               }
    }
,
   {
      "id"  : 358,
      "lat" : 40.67243,
      "lon" : 16.6013056,
      "tags" : {
               "operator" : "Maragno Francesco Paolo",
               "ref" : "358",
               "beds" : "2",
               "name" : "L'angolino",
               "addr:street" : "Via della Croce 43/1",
               "addr:housenumber" : "",
               "breakfast"  : "yes",
               "tourism"  : "guest_house"
               }
    }
,
   {
      "id"  : 359,
      "lat" : 40.665985,
      "lon" : 16.610805,
      "tags" : {
               "operator" : "Giuseppe Santochirico",
               "ref" : "359",
               "beds" : "4",
               "name" : "L'antica Civita",
               "addr:street" : "Recinto Castelvecchio",
               "addr:housenumber" : "5",
               "breakfast"  : "yes",
               "tourism"  : "guest_house"
               }
    }
,
   {
      "id"  : 360,
      "lat" : 40.666087,
      "lon" : 16.609681,
      "tags" : {
               "operator" : "Monica Celeste Lascaro",
               "ref" : "360",
               "beds" : "6",
               "name" : "L'arturo",
               "addr:street" : "Via Tre Corone  9/10",
               "addr:housenumber" : "",
               "breakfast"  : "yes",
               "tourism"  : "guest_house"
               }
    }
,
   {
      "id"  : 361,
      "lat" : 40.6674503,
      "lon" : 16.6012834,
      "tags" : {
               "operator" : "Immacolata Nicoletti",
               "ref" : "361",
               "beds" : "2",
               "name" : "L'attico del Centro Matera",
               "addr:street" : "Viale Aldo Moro",
               "addr:housenumber" : "10",
               "breakfast"  : "yes",
               "tourism"  : "guest_house"
               }
    }
,
   {
      "id"  : 362,
      "lat" : 40.6596574,
      "lon" : 16.6136478,
      "tags" : {
               "operator" : "Pagliei Rosalia",
               "ref" : "362",
               "beds" : "4",
               "name" : "Le Ali di Angelo",
               "addr:street" : "Via Lucana",
               "addr:housenumber" : "282",
               "breakfast"  : "yes",
               "tourism"  : "guest_house"
               }
    }
,
   {
      "id"  : 363,
      "lat" : 40.646172,
      "lon" : 16.618913,
      "tags" : {
               "operator" : "Duni Angela Raffaella",
               "ref" : "363",
               "beds" : "6",
               "name" : "Le Sorbole",
               "addr:street" : "Via Manicone",
               "addr:housenumber" : "17",
               "breakfast"  : "yes",
               "tourism"  : "guest_house"
               }
    }
,
   {
      "id"  : 365,
      "lat" : 40.6616204,
      "lon" : 16.607579,
      "tags" : {
               "operator" : "Tommaso Felicetti",
               "ref" : "365",
               "beds" : "5",
               "name" : "L'edera",
               "addr:street" : "Via Caropreso 10f",
               "addr:housenumber" : "",
               "breakfast"  : "yes",
               "tourism"  : "guest_house"
               }
    }
,
   {
      "id"  : 366,
      "lat" : 40.642495,
      "lon" : 16.62292,
      "tags" : {
               "operator" : "Ventura Nicola",
               "ref" : "366",
               "beds" : "3",
               "name" : "Lo Speziale",
               "addr:street" : "Via dell'ariete",
               "addr:housenumber" : "13",
               "breakfast"  : "yes",
               "tourism"  : "guest_house"
               }
    }
,
   {
      "id"  : 367,
      "lat" : 40.6659269,
      "lon" : 16.6074773,
      "tags" : {
               "operator" : "D'ambrosio Teresa Maria",
               "ref" : "367",
               "beds" : "6",
               "name" : "Lo Straniero",
               "addr:street" : "Via del Corso 17bis",
               "addr:housenumber" : "",
               "breakfast"  : "yes",
               "tourism"  : "guest_house"
               }
    }
,
   {
      "id"  : 368,
      "lat" : 40.668078,
      "lon" : 16.6052844,
      "tags" : {
               "operator" : "Catoggio Angelo Maria Giovanni",
               "ref" : "368",
               "beds" : "6",
               "name" : "Lucana 22",
               "addr:street" : "Via Lucana",
               "addr:housenumber" : "22",
               "breakfast"  : "yes",
               "tourism"  : "guest_house"
               }
    }
,
   {
      "id"  : 369,
      "lat" : 40.669234,
      "lon" : 16.607573,
      "tags" : {
               "operator" : "D'anzi Margherita",
               "ref" : "369",
               "beds" : "8",
               "name" : "Margot",
               "addr:street" : "Via T. Stigliani",
               "addr:housenumber" : "32",
               "breakfast"  : "yes",
               "tourism"  : "guest_house"
               }
    }
,
   {
      "id"  : 370,
      "lat" : 40.6628731,
      "lon" : 16.6081203,
      "tags" : {
               "operator" : "Chironne Maria Antonia",
               "ref" : "370",
               "beds" : "4",
               "name" : "Marisol",
               "addr:street" : "Via P. Vena",
               "addr:housenumber" : "74",
               "breakfast"  : "yes",
               "tourism"  : "guest_house"
               }
    }
,
   {
      "id"  : 371,
      "lat" : 40.715046,
      "lon" : 16.516131,
      "tags" : {
               "operator" : "Castoro Giuseppe",
               "ref" : "371",
               "beds" : "4",
               "name" : "Masseria La Fiorita",
               "addr:street" : "Contrada Marroni  Snc",
               "addr:housenumber" : "",
               "breakfast"  : "yes",
               "tourism"  : "guest_house"
               }
    }
,
   {
      "id"  : 372,
      "lat" : 40.6591175,
      "lon" : 16.6147381,
      "tags" : {
               "operator" : "Pompilio Gaetano",
               "ref" : "372",
               "beds" : "2",
               "name" : "Matera Residence",
               "addr:street" : "Via Lucana",
               "addr:housenumber" : "295",
               "breakfast"  : "yes",
               "tourism"  : "guest_house"
               }
    }
,
   {
      "id"  : 373,
      "lat" : 40.6695783,
      "lon" : 16.5950964,
      "tags" : {
               "operator" : "Bitetti Annunziata",
               "ref" : "373",
               "beds" : "3",
               "name" : "Materapartment",
               "addr:street" : "Via Lazazzera",
               "addr:housenumber" : "30",
               "breakfast"  : "yes",
               "tourism"  : "guest_house"
               }
    }
,
   {
      "id"  : 374,
      "lat" : 40.666178,
      "lon" : 16.6109311,
      "tags" : {
               "operator" : "Tommaso Mattei",
               "ref" : "374",
               "beds" : "4",
               "name" : "Matera's",
               "addr:street" : "Salita Castelvecchio 16 17",
               "addr:housenumber" : "18",
               "breakfast"  : "yes",
               "tourism"  : "guest_house"
               }
    }
,
   {
      "id"  : 375,
      "lat" : 40.6752065,
      "lon" : 16.5859766,
      "tags" : {
               "operator" : "Taccardi Massimo",
               "ref" : "375",
               "beds" : "4",
               "name" : "Meucci",
               "addr:street" : "Via Meucci",
               "addr:housenumber" : "1",
               "breakfast"  : "yes",
               "tourism"  : "guest_house"
               }
    }
,
   {
      "id"  : 376,
      "lat" : 40.6647072,
      "lon" : 16.6004856,
      "tags" : {
               "operator" : "Danieliulian Bleau",
               "ref" : "376",
               "beds" : "5",
               "name" : "Misty2d",
               "addr:street" : "Via Cappelluti",
               "addr:housenumber" : "47",
               "breakfast"  : "yes",
               "tourism"  : "guest_house"
               }
    }
,
   {
      "id"  : 377,
      "lat" : 40.6657398,
      "lon" : 16.6115226,
      "tags" : {
               "operator" : "Benigno Olivopotenza",
               "ref" : "377",
               "beds" : "2",
               "name" : "Nei Sassi Da Nino",
               "addr:street" : "Recinto Cavone",
               "addr:housenumber" : "2",
               "breakfast"  : "yes",
               "tourism"  : "guest_house"
               }
    }
,
   {
      "id"  : 379,
      "lat" : 40.6650298,
      "lon" : 16.6078366,
      "tags" : {
               "operator" : "Florio Maria Carmela",
               "ref" : "379",
               "beds" : "7",
               "name" : "Netta",
               "addr:street" : "Via Scotellaro",
               "addr:housenumber" : "5",
               "breakfast"  : "yes",
               "tourism"  : "guest_house"
               }
    }
,
   {
      "id"  : 381,
      "lat" : 40.6743411,
      "lon" : 16.5799202,
      "tags" : {
               "operator" : "Burdo Addolorata",
               "ref" : "381",
               "beds" : "3",
               "name" : "Orione",
               "addr:street" : "Via Sinni",
               "addr:housenumber" : "9",
               "breakfast"  : "yes",
               "tourism"  : "guest_house"
               }
    }
,
   {
      "id"  : 382,
      "lat" : 40.669989,
      "lon" : 16.60884,
      "tags" : {
               "operator" : "Teresa Lionetti",
               "ref" : "382",
               "beds" : "2",
               "name" : "Pata'",
               "addr:street" : "Via Santa Cesarea",
               "addr:housenumber" : "10",
               "breakfast"  : "yes",
               "tourism"  : "guest_house"
               }
    }
,
   {
      "id"  : 383,
      "lat" : 40.66647,
      "lon" : 16.61176,
      "tags" : {
               "operator" : "Amabile Trilli",
               "ref" : "383",
               "beds" : "2",
               "name" : "Ponticello A San Potito",
               "addr:street" : "Via San Potito",
               "addr:housenumber" : "55",
               "breakfast"  : "yes",
               "tourism"  : "guest_house"
               }
    }
,
   {
      "id"  : 384,
      "lat" : 40.648251,
      "lon" : 16.6024079,
      "tags" : {
               "operator" : "Aldo Urgo",
               "ref" : "384",
               "beds" : "2",
               "name" : "Portapepice",
               "addr:street" : "Contrada Chiancalata",
               "addr:housenumber" : "",
               "breakfast"  : "yes",
               "tourism"  : "guest_house"
               }
    }
,
   {
      "id"  : 385,
      "lat" : 40.6667908,
      "lon" : 16.6101923,
      "tags" : {
               "operator" : "Di Benedetto Franco",
               "ref" : "385",
               "beds" : "6",
               "name" : "I San Gennaro  B & B",
               "addr:street" : "Via San Gennaro",
               "addr:housenumber" : "24",
               "breakfast"  : "yes",
               "tourism"  : "guest_house"
               }
    }
,
   {
      "id"  : 386,
      "lat" : 40.6721108,
      "lon" : 16.6022857,
      "tags" : {
               "operator" : "Nicola Plasmati",
               "ref" : "386",
               "beds" : "4",
               "name" : "Rooms Matera",
               "addr:street" : "Via Annunziatella ",
               "addr:housenumber" : "147",
               "breakfast"  : "yes",
               "tourism"  : "guest_house"
               }
    }
,
   {
      "id"  : 387,
      "lat" : 40.6668635,
      "lon" : 16.6128911,
      "tags" : {
               "operator" : "Gaudiano Francesca",
               "ref" : "387",
               "beds" : null,
               "name" : "San Potito",
               "addr:street" : "Via San Potito",
               "addr:housenumber" : "10",
               "breakfast"  : "yes",
               "tourism"  : "guest_house"
               }
    }
,
   {
      "id"  : 388,
      "lat" : 40.6678407,
      "lon" : 16.6091579,
      "tags" : {
               "operator" : "Stasi Teresa",
               "ref" : "388",
               "beds" : "2",
               "name" : "San Rocco",
               "addr:street" : "Via San Rocco",
               "addr:housenumber" : "78",
               "breakfast"  : "yes",
               "tourism"  : "guest_house"
               }
    }
,
   {
      "id"  : 389,
      "lat" : 40.6643476,
      "lon" : 16.6115588,
      "tags" : {
               "operator" : "Grande Grazia",
               "ref" : "389",
               "beds" : "6",
               "name" : "Sassolino",
               "addr:street" : "Via Bruno Buozzi",
               "addr:housenumber" : "180",
               "breakfast"  : "yes",
               "tourism"  : "guest_house"
               }
    }
,
   {
      "id"  : 395,
      "lat" : 40.6553849,
      "lon" : 16.5857851,
      "tags" : {
               "operator" : "Loperfido Maria Raffaella",
               "ref" : "395",
               "beds" : "2",
               "name" : "Villa Raffy",
               "addr:street" : "C.Da Pozzo Misseo",
               "addr:housenumber" : "",
               "breakfast"  : "yes",
               "tourism"  : "guest_house"
               }
    }
,
   {
      "id"  : 396,
      "lat" : 40.6593082,
      "lon" : 16.6072331,
      "tags" : {
               "operator" : "Venezia Filomena",
               "ref" : "396",
               "beds" : "2",
               "name" : "Accerassole",
               "addr:street" : "Via P. Vena",
               "addr:housenumber" : "85",
               "breakfast"  : "yes",
               "tourism"  : "guest_house"
               }
    }
,
   {
      "id"  : 397,
      "lat" : 40.6657398,
      "lon" : 16.6115226,
      "tags" : {
               "operator" : "Rondinone Angela",
               "ref" : "397",
               "beds" : "3",
               "name" : "Uno Sguardo Sui Sassi",
               "addr:street" : "Vico Santo Stefano",
               "addr:housenumber" : "90",
               "breakfast"  : "yes",
               "tourism"  : "guest_house"
               }
    }
,
   {
      "id"  : 398,
      "lat" : 40.676691,
      "lon" : 16.599124,
      "tags" : {
               "operator" : "Marcosano Maria Pia",
               "ref" : "398",
               "beds" : "2",
               "name" : "Tra I Mulini",
               "addr:street" : "Via Marconi",
               "addr:housenumber" : "121",
               "breakfast"  : "yes",
               "tourism"  : "guest_house"
               }
    }
,
   {
      "id"  : 399,
      "lat" : 40.6684906,
      "lon" : 16.5924608,
      "tags" : {
               "operator" : "Melodia Annalisa",
               "ref" : "399",
               "beds" : "2",
               "name" : "Da Annalisa",
               "addr:street" : "Viale della Liberta'",
               "addr:housenumber" : "2",
               "breakfast"  : "yes",
               "tourism"  : "guest_house"
               }
    }
,
   {
      "id"  : 401,
      "lat" : 40.6713,
      "lon" : 16.6051413,
      "tags" : {
               "operator" : "Michele Frascella",
               "ref" : "401",
               "beds" : "6",
               "name" : "Mefite Dimora B&b",
               "addr:street" : "Via Annunziatella",
               "addr:housenumber" : "34",
               "breakfast"  : "yes",
               "tourism"  : "guest_house"
               }
    }
,
   {
      "id"  : 402,
      "lat" : 40.65795637,
      "lon" : 16.6118297,
      "tags" : {
               "operator" : "Antonio Sacco",
               "ref" : "402",
               "beds" : "3",
               "name" : "I Like Matera",
               "addr:street" : "Via M. Morelli",
               "addr:housenumber" : "4",
               "breakfast"  : "yes",
               "tourism"  : "guest_house"
               }
    }
,
   {
      "id"  : 404,
      "lat" : 40.673475,
      "lon" : 16.607125,
      "tags" : {
               "operator" : "Santarsia Anna Maria",
               "ref" : "404",
               "beds" : "4",
               "name" : "Da Luciano",
               "addr:street" : "Via Cererie",
               "addr:housenumber" : "4",
               "breakfast"  : "yes",
               "tourism"  : "guest_house"
               }
    }
,
   {
      "id"  : 405,
      "lat" : 40.6657214,
      "lon" : 16.5938137,
      "tags" : {
               "operator" : "Concetta Casamia",
               "ref" : "405",
               "beds" : "4",
               "name" : "Casamia 2019",
               "addr:street" : "Via Santa Caterina da Siena",
               "addr:housenumber" : "6",
               "breakfast"  : "yes",
               "tourism"  : "guest_house"
               }
    }
,
   {
      "id"  : 406,
      "lat" : 40.6677138,
      "lon" : 16.6078866,
      "tags" : {
               "operator" : "Francesco Giusto",
               "ref" : "406",
               "beds" : "2",
               "name" : "Bed & Breakfast Giusto",
               "addr:street" : "Via Laura Battista",
               "addr:housenumber" : "15",
               "breakfast"  : "yes",
               "tourism"  : "guest_house"
               }
    }
,
   {
      "id"  : 407,
      "lat" : 40.667691,
      "lon" : 16.609197,
      "tags" : {
               "operator" : "Simona Loperfido",
               "ref" : "407",
               "beds" : "8",
               "name" : "Hoplites",
               "addr:street" : "Via San Rocco",
               "addr:housenumber" : "119",
               "breakfast"  : "yes",
               "tourism"  : "guest_house"
               }
    }
,
   {
      "id"  : 408,
      "lat" : 40.6655016,
      "lon" : 16.603939,
      "tags" : {
               "operator" : "Maria Rosaria Liantonio",
               "ref" : "408",
               "beds" : "6",
               "name" : "B & B Aurelia",
               "addr:street" : "Via Torraca ",
               "addr:housenumber" : "23",
               "breakfast"  : "yes",
               "tourism"  : "guest_house"
               }
    }
,
   {
      "id"  : 409,
      "lat" : 40.6710931,
      "lon" : 16.6086155,
      "tags" : {
               "operator" : "Sacco Claudia",
               "ref" : "409",
               "beds" : null,
               "name" : "La Corte Degli Artigiani",
               "addr:street" : "Via Santo Stefano",
               "addr:housenumber" : "26",
               "breakfast"  : "yes",
               "tourism"  : "guest_house"
               }
    }
,
   {
      "id"  : 410,
      "lat" : 40.6810388,
      "lon" : 16.6238437,
      "tags" : {
               "operator" : "Rosanna Matera",
               "ref" : "410",
               "beds" : "3",
               "name" : "Il Casale Verde",
               "addr:street" : "C.Da Pedale della Palomba",
               "addr:housenumber" : "",
               "breakfast"  : "yes",
               "tourism"  : "guest_house"
               }
    }
,
   {
      "id"  : 411,
      "lat" : 40.6674937,
      "lon" : 16.6045006,
      "tags" : {
               "operator" : "Festa Cosimo Damiano",
               "ref" : "411",
               "beds" : "2",
               "name" : "Le Notti Sui Sassi",
               "addr:street" : "Via Lucana",
               "addr:housenumber" : "262",
               "breakfast"  : "yes",
               "tourism"  : "guest_house"
               }
    }
,
   {
      "id"  : 412,
      "lat" : 40.6633785,
      "lon" : 16.6119767,
      "tags" : {
               "operator" : "Saponaro Leonardo Antonio",
               "ref" : "412",
               "beds" : "3",
               "name" : "Un Posto A Malve",
               "addr:street" : "Rione Malve",
               "addr:housenumber" : "23",
               "breakfast"  : "yes",
               "tourism"  : "guest_house"
               }
    }
,
   {
      "id"  : 413,
      "lat" : 40.6719431,
      "lon" : 16.6084047,
      "tags" : {
               "operator" : "Giovanni Azzone",
               "ref" : "413",
               "beds" : "5",
               "name" : "Il Peccato Originale",
               "addr:street" : "Via Santo Stefano",
               "addr:housenumber" : "60",
               "breakfast"  : "yes",
               "tourism"  : "guest_house"
               }
    }
,
   {
      "id"  : 721,
      "lat" : 40.65935355,
      "lon" : 16.53170708,
      "tags" : {
               "operator" : "Scarciolla Eustachio Vincenzo",
               "ref" : "721",
               "beds" : "6",
               "name" : "Al Borgo",
               "addr:street" : "Via Tagliamento",
               "addr:housenumber" : "2",
               "breakfast"  : "yes",
               "tourism"  : "guest_house"
               }
    }
,
   {
      "id"  : 722,
      "lat" : 40.668927,
      "lon" : 16.610487,
      "tags" : {
               "operator" : "Genco Marianna",
               "ref" : "722",
               "beds" : null,
               "name" : "Delle Virtu'",
               "addr:street" : "Via Casale",
               "addr:housenumber" : "63",
               "breakfast"  : "yes",
               "tourism"  : "guest_house"
               }
    }
,
   {
      "id"  : 723,
      "lat" : 40.661286,
      "lon" : 16.611772,
      "tags" : {
               "operator" : "Moliterni Maria Raffaella",
               "ref" : "723",
               "beds" : "6",
               "name" : "Domina Sassi Rooms",
               "addr:street" : "Via San Francesco Paolo Vecchio 22/23",
               "addr:housenumber" : "",
               "breakfast"  : "yes",
               "tourism"  : "guest_house"
               }
    }
,
   {
      "id"  : 724,
      "lat" : 40.66313661,
      "lon" : 16.61166098,
      "tags" : {
               "operator" : "Emma Annagrazia Maria",
               "ref" : "724",
               "beds" : "4",
               "name" : "En Suite",
               "addr:street" : "Vico Confalone",
               "addr:housenumber" : "2",
               "breakfast"  : "yes",
               "tourism"  : "guest_house"
               }
    }
,
   {
      "id"  : 725,
      "lat" : 40.64283712,
      "lon" : 16.62475767,
      "tags" : {
               "operator" : "Cataldo Di Pede",
               "ref" : "725",
               "beds" : "6",
               "name" : "Solacium",
               "addr:street" : "Via T. Ricciardi",
               "addr:housenumber" : "63",
               "breakfast"  : "yes",
               "tourism"  : "guest_house"
               }
    }
,
   {
      "id"  : 726,
      "lat" : 40.664696,
      "lon" : 16.610535,
      "tags" : {
               "operator" : "Renzi Vittoria",
               "ref" : "726",
               "beds" : "2",
               "name" : "1824 Sasso Scritto",
               "addr:street" : "Via Pennino 8/11",
               "addr:housenumber" : "",
               "breakfast"  : "yes",
               "tourism"  : "guest_house"
               }
    }
,
   {
      "id"  : 727,
      "lat" : 40.66895296,
      "lon" : 16.60682874,
      "tags" : {
               "operator" : "Andreina Guarini",
               "ref" : "727",
               "beds" : "3",
               "name" : "A Casa Mia",
               "addr:street" : "Rec. Mario Pagano",
               "addr:housenumber" : "5",
               "breakfast"  : "yes",
               "tourism"  : "guest_house"
               }
    }
,
   {
      "id"  : 728,
      "lat" : 40.66221453,
      "lon" : 16.59593366,
      "tags" : {
               "operator" : "Mostacci Michele",
               "ref" : "728",
               "beds" : "4",
               "name" : "Amoustache",
               "addr:street" : "Via Passarelli 137 Bis",
               "addr:housenumber" : "",
               "breakfast"  : "yes",
               "tourism"  : "guest_house"
               }
    }
,
   {
      "id"  : 729,
      "lat" : 40.658075,
      "lon" : 16.59654967,
      "tags" : {
               "operator" : "Disimine Rosaria",
               "ref" : "729",
               "beds" : "5",
               "name" : "Bagni del Sole",
               "addr:street" : "Contrada Sgarrone",
               "addr:housenumber" : "",
               "breakfast"  : "yes",
               "tourism"  : "guest_house"
               }
    }
,
   {
      "id"  : 730,
      "lat" : 40.66710283,
      "lon" : 16.61085431,
      "tags" : {
               "operator" : "Capriotti Olivio",
               "ref" : "730",
               "beds" : "6",
               "name" : "Capriotti",
               "addr:street" : "Via Gradoni Duomo 23-28",
               "addr:housenumber" : "",
               "breakfast"  : "yes",
               "tourism"  : "guest_house"
               }
    }
,
   {
      "id"  : 731,
      "lat" : 40.64744124,
      "lon" : 16.62839323,
      "tags" : {
               "operator" : "Di Pede Giuseppe",
               "ref" : "731",
               "beds" : "4",
               "name" : "Casale delle Piane",
               "addr:street" : "C.Da Agna Le Piane",
               "addr:housenumber" : "",
               "breakfast"  : "yes",
               "tourism"  : "guest_house"
               }
    }
,
   {
      "id"  : 732,
      "lat" : 40.6809587,
      "lon" : 16.57461036,
      "tags" : {
               "operator" : "Casamia Concetta",
               "ref" : "732",
               "beds" : null,
               "name" : "Casamia2019",
               "addr:street" : "Via Terenzio",
               "addr:housenumber" : "11",
               "breakfast"  : "yes",
               "tourism"  : "guest_house"
               }
    }
,
   {
      "id"  : 733,
      "lat" : 40.668139,
      "lon" : 16.604026,
      "tags" : {
               "operator" : "Mattei Marco",
               "ref" : "733",
               "beds" : "2",
               "name" : "Centrale",
               "addr:street" : "Vico Vi Novembre",
               "addr:housenumber" : "",
               "breakfast"  : "yes",
               "tourism"  : "guest_house"
               }
    }
,
   {
      "id"  : 734,
      "lat" : 40.65183926,
      "lon" : 16.6178548,
      "tags" : {
               "operator" : "Fraccalvieri Feliciana",
               "ref" : "734",
               "beds" : "2",
               "name" : "Dal Vecchio Frantoio",
               "addr:street" : "Rec Montescaglioso",
               "addr:housenumber" : "15",
               "breakfast"  : "yes",
               "tourism"  : "guest_house"
               }
    }
,
   {
      "id"  : 735,
      "lat" : 40.68834072,
      "lon" : 16.57575739,
      "tags" : {
               "operator" : "Perrone Pietro",
               "ref" : "735",
               "beds" : "5",
               "name" : "Dalia",
               "addr:street" : "Rec Ii Paolo Borsellino",
               "addr:housenumber" : "8",
               "breakfast"  : "yes",
               "tourism"  : "guest_house"
               }
    }
,
   {
      "id"  : 736,
      "lat" : 40.65312437,
      "lon" : 16.61797428,
      "tags" : {
               "operator" : "Emanuele Papapietro",
               "ref" : "736",
               "beds" : "4",
               "name" : "Dany's House",
               "addr:street" : "Via Cappuccini",
               "addr:housenumber" : "32",
               "breakfast"  : "yes",
               "tourism"  : "guest_house"
               }
    }
,
   {
      "id"  : 737,
      "lat" : 40.661288,
      "lon" : 16.611783,
      "tags" : {
               "operator" : "Moliterni Raffaella",
               "ref" : "737",
               "beds" : "6",
               "name" : "Domina Sassi",
               "addr:street" : "Via Casalnuovo",
               "addr:housenumber" : "90",
               "breakfast"  : "yes",
               "tourism"  : "guest_house"
               }
    }
,
   {
      "id"  : 738,
      "lat" : 40.64468926,
      "lon" : 16.62465384,
      "tags" : {
               "operator" : "Venezia Pierfrancesco",
               "ref" : "738",
               "beds" : "2",
               "name" : "Domus Angela",
               "addr:street" : "Via T. Ricciardi 13/3",
               "addr:housenumber" : "",
               "breakfast"  : "yes",
               "tourism"  : "guest_house"
               }
    }
,
   {
      "id"  : 739,
      "lat" : 40.66698282,
      "lon" : 16.60804635,
      "tags" : {
               "operator" : "Lascaro Angela",
               "ref" : "739",
               "beds" : "7",
               "name" : "Donna Lina",
               "addr:street" : "Vico Fornaci Vecchie 7.8.9",
               "addr:housenumber" : "",
               "breakfast"  : "yes",
               "tourism"  : "guest_house"
               }
    }
,
   {
      "id"  : 740,
      "lat" : 40.68791918,
      "lon" : 16.58735956,
      "tags" : {
               "operator" : "Filomena Fabrizio",
               "ref" : "740",
               "beds" : "2",
               "name" : "Due Cuori E Un B&b",
               "addr:street" : "Via dei Messapi",
               "addr:housenumber" : "41",
               "breakfast"  : "yes",
               "tourism"  : "guest_house"
               }
    }
,
   {
      "id"  : 741,
      "lat" : 40.65990805,
      "lon" : 16.61155216,
      "tags" : {
               "operator" : "Santochirico Eustachio",
               "ref" : "741",
               "beds" : "4",
               "name" : "Fortunato",
               "addr:street" : "Via Giustino Fortunato ",
               "addr:housenumber" : "9",
               "breakfast"  : "yes",
               "tourism"  : "guest_house"
               }
    }
,
   {
      "id"  : 742,
      "lat" : 40.67503422,
      "lon" : 16.59834565,
      "tags" : {
               "operator" : "Giulio Fabrizio",
               "ref" : "742",
               "beds" : "3",
               "name" : "I Due Archi",
               "addr:street" : "Via Gobetti 51/a",
               "addr:housenumber" : "",
               "breakfast"  : "yes",
               "tourism"  : "guest_house"
               }
    }
,
   {
      "id"  : 743,
      "lat" : 40.673471,
      "lon" : 16.607093,
      "tags" : {
               "operator" : "Laura Luongo",
               "ref" : "743",
               "beds" : "3",
               "name" : "Il Cielo Sui Sassi",
               "addr:street" : "Via Cererie 4/b",
               "addr:housenumber" : "",
               "breakfast"  : "yes",
               "tourism"  : "guest_house"
               }
    }
,
   {
      "id"  : 744,
      "lat" : 40.66580356,
      "lon" : 16.61094328,
      "tags" : {
               "operator" : "Nicoletti Domenico",
               "ref" : "744",
               "beds" : "3",
               "name" : "Il Colle della Civita",
               "addr:street" : "Rec.Castelvecchio",
               "addr:housenumber" : "5",
               "breakfast"  : "yes",
               "tourism"  : "guest_house"
               }
    }
,
   {
      "id"  : 745,
      "lat" : 40.68894805,
      "lon" : 16.58609007,
      "tags" : {
               "operator" : "Isabella Guarini",
               "ref" : "745",
               "beds" : "3",
               "name" : "Il Giardino di Italia",
               "addr:street" : "Via dei Messapi 25 Bis",
               "addr:housenumber" : "",
               "breakfast"  : "yes",
               "tourism"  : "guest_house"
               }
    }
,
   {
      "id"  : 746,
      "lat" : 40.6690902,
      "lon" : 16.60372212,
      "tags" : {
               "operator" : "Manicone Anna",
               "ref" : "746",
               "beds" : "2",
               "name" : "Il Giglio dei Sassi",
               "addr:street" : "Via L. Protospata ",
               "addr:housenumber" : "37",
               "breakfast"  : "yes",
               "tourism"  : "guest_house"
               }
    }
,
   {
      "id"  : 747,
      "lat" : 40.64575826,
      "lon" : 16.6193574,
      "tags" : {
               "operator" : "Cappiello Anna Maria",
               "ref" : "747",
               "beds" : "3",
               "name" : "Il Girasole",
               "addr:street" : "Rec. Mastronardi 2/e",
               "addr:housenumber" : "",
               "breakfast"  : "yes",
               "tourism"  : "guest_house"
               }
    }
,
   {
      "id"  : 748,
      "lat" : 40.65648624,
      "lon" : 16.58825676,
      "tags" : {
               "operator" : "Ribecco Anna Maria",
               "ref" : "748",
               "beds" : "4",
               "name" : "Il Pizzocannicchio",
               "addr:street" : "Contrada Pizzocannicchio",
               "addr:housenumber" : "",
               "breakfast"  : "yes",
               "tourism"  : "guest_house"
               }
    }
,
   {
      "id"  : 750,
      "lat" : 40.6463614,
      "lon" : 16.62193795,
      "tags" : {
               "operator" : "Anna Maria Manicone",
               "ref" : "750",
               "beds" : "7",
               "name" : "La Casa di Anna",
               "addr:street" : "Via Rutigliano",
               "addr:housenumber" : "5",
               "breakfast"  : "yes",
               "tourism"  : "guest_house"
               }
    }
,
   {
      "id"  : 751,
      "lat" : 40.68045914,
      "lon" : 16.58187237,
      "tags" : {
               "operator" : "Iannarella Sara",
               "ref" : "751",
               "beds" : "4",
               "name" : "La Dolce Notte",
               "addr:street" : "Via Virgilio",
               "addr:housenumber" : "5",
               "breakfast"  : "yes",
               "tourism"  : "guest_house"
               }
    }
,
   {
      "id"  : 752,
      "lat" : 40.6698641,
      "lon" : 16.60752316,
      "tags" : {
               "operator" : "Monica Imbrea",
               "ref" : "752",
               "beds" : "6",
               "name" : "La Formica",
               "addr:street" : "Via F. Paolo Volpe",
               "addr:housenumber" : "6",
               "breakfast"  : "yes",
               "tourism"  : "guest_house"
               }
    }
,
   {
      "id"  : 753,
      "lat" : 40.64444282,
      "lon" : 16.62350028,
      "tags" : {
               "operator" : "Belisario Cifarelli",
               "ref" : "753",
               "beds" : "2",
               "name" : "La Specchia",
               "addr:street" : "Via Teodoro Ricciardi",
               "addr:housenumber" : "8",
               "breakfast"  : "yes",
               "tourism"  : "guest_house"
               }
    }
,
   {
      "id"  : 754,
      "lat" : 40.6635927,
      "lon" : 16.53448672,
      "tags" : {
               "operator" : "Rossella Ferraroni",
               "ref" : "754",
               "beds" : "4",
               "name" : "L'antico Borgo",
               "addr:street" : "Via Donato Donatello 1 D",
               "addr:housenumber" : "",
               "breakfast"  : "yes",
               "tourism"  : "guest_house"
               }
    }
,
   {
      "id"  : 755,
      "lat" : 40.666617,
      "lon" : 16.608589,
      "tags" : {
               "operator" : "Alessandro Sacco",
               "ref" : "755",
               "beds" : "6",
               "name" : "Le Rondinelle",
               "addr:street" : "Rec.1 Fiorentini 1-2",
               "addr:housenumber" : "",
               "breakfast"  : "yes",
               "tourism"  : "guest_house"
               }
    }
,
   {
      "id"  : 756,
      "lat" : 40.67259074,
      "lon" : 16.60518062,
      "tags" : {
               "operator" : "Santarcangelo Giuseppe",
               "ref" : "756",
               "beds" : "2",
               "name" : "Matera  City",
               "addr:street" : "Via Giolitti",
               "addr:housenumber" : "25",
               "breakfast"  : "yes",
               "tourism"  : "guest_house"
               }
    }
,
   {
      "id"  : 757,
      "lat" : 40.66809855,
      "lon" : 16.60845482,
      "tags" : {
               "operator" : "Grossi Francesco Paolo",
               "ref" : "757",
               "beds" : "2",
               "name" : "Anima Pietra Suite",
               "addr:street" : "Piazza San Biagio",
               "addr:housenumber" : "3",
               "breakfast"  : "yes",
               "tourism"  : "guest_house"
               }
    }
,
   {
      "id"  : 758,
      "lat" : 40.696678,
      "lon" : 16.585586,
      "tags" : {
               "operator" : "Padula Francesco",
               "ref" : "758",
               "beds" : "4",
               "name" : "Pineta Paducci",
               "addr:street" : "Contrada Serra Paducci",
               "addr:housenumber" : "",
               "breakfast"  : "yes",
               "tourism"  : "guest_house"
               }
    }
,
   {
      "id"  : 759,
      "lat" : 40.65509,
      "lon" : 16.586411,
      "tags" : {
               "operator" : "Giuseppe Paolicelli",
               "ref" : "759",
               "beds" : "6",
               "name" : "Pozzo Misseo",
               "addr:street" : "Contrada Pozzo Misseo S.N.C.",
               "addr:housenumber" : "",
               "breakfast"  : "yes",
               "tourism"  : "guest_house"
               }
    }
,
   {
      "id"  : 760,
      "lat" : 40.68341255,
      "lon" : 16.5868605,
      "tags" : {
               "operator" : "Marcella A. Casamassima",
               "ref" : "760",
               "beds" : "4",
               "name" : "President's Home",
               "addr:street" : "Via Degli Ausoni",
               "addr:housenumber" : "8",
               "breakfast"  : "yes",
               "tourism"  : "guest_house"
               }
    }
,
   {
      "id"  : 764,
      "lat" : 40.6702249,
      "lon" : 16.60851939,
      "tags" : {
               "operator" : "Mancino Michele",
               "ref" : "764",
               "beds" : "6",
               "name" : "Terrazza Sui Sassi",
               "addr:street" : "Via Piave",
               "addr:housenumber" : "35",
               "breakfast"  : "yes",
               "tourism"  : "guest_house"
               }
    }
,
   {
      "id"  : 766,
      "lat" : 40.6693583,
      "lon" : 16.60364721,
      "tags" : {
               "operator" : "Papapietro Pasquale",
               "ref" : "766",
               "beds" : "4",
               "name" : "B&b Papapietro",
               "addr:street" : "Via Lupo Protospata",
               "addr:housenumber" : "37",
               "breakfast"  : "yes",
               "tourism"  : "guest_house"
               }
    }
,
   {
      "id"  : 767,
      "lat" : 40.66039618,
      "lon" : 16.6119212,
      "tags" : {
               "operator" : "Festa Antonella",
               "ref" : "767",
               "beds" : "4",
               "name" : "History",
               "addr:street" : "Via Lucana",
               "addr:housenumber" : "278",
               "breakfast"  : "yes",
               "tourism"  : "guest_house"
               }
    }
,
   {
      "id"  : 768,
      "lat" : 40.66120131,
      "lon" : 16.61231107,
      "tags" : {
               "operator" : "Giasi Giuseppe",
               "ref" : "768",
               "beds" : "2",
               "name" : "Sister's In Love",
               "addr:street" : "Rec 5lucano",
               "addr:housenumber" : "11",
               "breakfast"  : "yes",
               "tourism"  : "guest_house"
               }
    }
,
   {
      "id"  : 769,
      "lat" : 40.66585784,
      "lon" : 16.6079427,
      "tags" : {
               "operator" : "Notaro Andrea",
               "ref" : "769",
               "beds" : "4",
               "name" : "B & B Al Vico",
               "addr:street" : "Vico San Giuseppe.31/33",
               "addr:housenumber" : "",
               "breakfast"  : "yes",
               "tourism"  : "guest_house"
               }
    }
,
   {
      "id"  : 770,
      "lat" : 40.66969542,
      "lon" : 16.60461049,
      "tags" : {
               "operator" : "Maria Cristina Ferro",
               "ref" : "770",
               "beds" : "3",
               "name" : "B & B Green",
               "addr:street" : "Via L. Protospata",
               "addr:housenumber" : "50",
               "breakfast"  : "yes",
               "tourism"  : "guest_house"
               }
    }
,
   {
      "id"  : 771,
      "lat" : 40.66566294,
      "lon" : 16.53338153,
      "tags" : {
               "operator" : "Loponte Domenica Maria",
               "ref" : "771",
               "beds" : "4",
               "name" : "Aron",
               "addr:street" : "Viale Mantegna Andrea",
               "addr:housenumber" : "104",
               "breakfast"  : "yes",
               "tourism"  : "guest_house"
               }
    }
,
   {
      "id"  : 772,
      "lat" : 40.67046031,
      "lon" : 16.60299811,
      "tags" : {
               "operator" : "Orlando Massimiliano",
               "ref" : "772",
               "beds" : "6",
               "name" : "B & B Orlando",
               "addr:street" : "Via L. Protospata",
               "addr:housenumber" : "74",
               "breakfast"  : "yes",
               "tourism"  : "guest_house"
               }
    }
,
   {
      "id"  : 773,
      "lat" : 40.67873024,
      "lon" : 16.57594518,
      "tags" : {
               "operator" : "Di Pede Rosalba",
               "ref" : "773",
               "beds" : "4",
               "name" : "B&b Elide",
               "addr:street" : "Via Taranto",
               "addr:housenumber" : "12",
               "breakfast"  : "yes",
               "tourism"  : "guest_house"
               }
    }
,
   {
      "id"  : 774,
      "lat" : 40.65948644,
      "lon" : 16.61217075,
      "tags" : {
               "operator" : "Valentina Cristallo",
               "ref" : "774",
               "beds" : "4",
               "name" : "Casa Cristallo",
               "addr:street" : "Via G. Fortunato 39 Piano Terra",
               "addr:housenumber" : "",
               "breakfast"  : "yes",
               "tourism"  : "guest_house"
               }
    }
,
   {
      "id"  : 775,
      "lat" : 40.64510975,
      "lon" : 16.61730378,
      "tags" : {
               "operator" : "Albanese Andrea Pietro Giovanni",
               "ref" : "775",
               "beds" : "6",
               "name" : "Donna Nicla Matera",
               "addr:street" : "Via Turi",
               "addr:housenumber" : "50",
               "breakfast"  : "yes",
               "tourism"  : "guest_house"
               }
    }
,
   {
      "id"  : 776,
      "lat" : 40.66767806,
      "lon" : 16.60985483,
      "tags" : {
               "operator" : "Ida Immacolata Riccardo",
               "ref" : "776",
               "beds" : "8",
               "name" : "B & B Da Ida",
               "addr:street" : "Via San Gennaro Vecchio",
               "addr:housenumber" : "66",
               "breakfast"  : "yes",
               "tourism"  : "guest_house"
               }
    }
,
   {
      "id"  : 778,
      "lat" : 40.66560544,
      "lon" : 16.61189422,
      "tags" : {
               "operator" : "Serena Altieri",
               "ref" : "778",
               "beds" : "4",
               "name" : "Corte dei Venti",
               "addr:street" : "Via San Giacomo",
               "addr:housenumber" : "20",
               "breakfast"  : "yes",
               "tourism"  : "guest_house"
               }
    }
,
   {
      "id"  : 779,
      "lat" : 40.67165705,
      "lon" : 16.60363538,
      "tags" : {
               "operator" : "Maria Cristina Parente",
               "ref" : "779",
               "beds" : "4",
               "name" : "Annunziatella 95",
               "addr:street" : "Via Annunziatella",
               "addr:housenumber" : "95",
               "breakfast"  : "yes",
               "tourism"  : "guest_house"
               }
    }
,
   {
      "id"  : 781,
      "lat" : 40.66559168,
      "lon" : 16.61182226,
      "tags" : {
               "operator" : "Paola De Donno",
               "ref" : "781",
               "beds" : "7",
               "name" : "Solosud",
               "addr:street" : "Via San Giacomo 16 17",
               "addr:housenumber" : "18",
               "breakfast"  : "yes",
               "tourism"  : "guest_house"
               }
    }
,
   {
      "id"  : 783,
      "lat" : 40.6625417,
      "lon" : 16.61029961,
      "tags" : {
               "operator" : "Marcello Coronella",
               "ref" : "783",
               "beds" : "2",
               "name" : "Dimora Lanfranchi",
               "addr:street" : "Via Casalnuovo",
               "addr:housenumber" : "8",
               "breakfast"  : "yes",
               "tourism"  : "guest_house"
               }
    }
,
   {
      "id"  : 784,
      "lat" : 40.64994866,
      "lon" : 16.62098773,
      "tags" : {
               "operator" : "Santarsia Chiara",
               "ref" : "784",
               "beds" : "2",
               "name" : "Sant'agnese",
               "addr:street" : "Via Francesco Natale Farina1",
               "addr:housenumber" : "",
               "breakfast"  : "yes",
               "tourism"  : "guest_house"
               }
    }
,
   {
      "id"  : 785,
      "lat" : 40.64593007,
      "lon" : 16.62160009,
      "tags" : {
               "operator" : "Claudia Pentasuglia",
               "ref" : "785",
               "beds" : "4",
               "name" : "Casa Azul",
               "addr:street" : "Via Mons. Cavalla",
               "addr:housenumber" : "10",
               "breakfast"  : "yes",
               "tourism"  : "guest_house"
               }
    }
,
   {
      "id"  : 786,
      "lat" : 40.6864277,
      "lon" : 16.57778443,
      "tags" : {
               "operator" : "Bellarosa Rosa",
               "ref" : "786",
               "beds" : "2",
               "name" : "Giada",
               "addr:street" : "Via Nino Rota",
               "addr:housenumber" : "298",
               "breakfast"  : "yes",
               "tourism"  : "guest_house"
               }
    }
,
   {
      "id"  : 788,
      "lat" : 40.6845307,
      "lon" : 16.58651745,
      "tags" : {
               "operator" : "Stifano Bruna",
               "ref" : "788",
               "beds" : "3",
               "name" : "A Casa di Bruna",
               "addr:street" : "Via dei Bruzzi",
               "addr:housenumber" : "66",
               "breakfast"  : "yes",
               "tourism"  : "guest_house"
               }
    }
,
   {
      "id"  : 789,
      "lat" : 40.66502674,
      "lon" : 16.60469011,
      "tags" : {
               "operator" : "Perrone Leonardo",
               "ref" : "789",
               "beds" : "2",
               "name" : "B & B Il Tramontano",
               "addr:street" : "Vico Gramsci",
               "addr:housenumber" : "2",
               "breakfast"  : "yes",
               "tourism"  : "guest_house"
               }
    }
,
   {
      "id"  : 790,
      "lat" : 40.66760618,
      "lon" : 16.6094309,
      "tags" : {
               "operator" : "Fabrizio Vincenzo",
               "ref" : "790",
               "beds" : "3",
               "name" : "Terra  Mater",
               "addr:street" : "Via San Rocco",
               "addr:housenumber" : "50",
               "breakfast"  : "yes",
               "tourism"  : "guest_house"
               }
    }
,
   {
      "id"  : 791,
      "lat" : 40.66806028,
      "lon" : 16.60803122,
      "tags" : {
               "operator" : "Dimastrodonato Gianluca",
               "ref" : "791",
               "beds" : "6",
               "name" : "Terra Lucana B&b",
               "addr:street" : "Vico Xx Settembre",
               "addr:housenumber" : "58",
               "breakfast"  : "yes",
               "tourism"  : "guest_house"
               }
    }
,
   {
      "id"  : 793,
      "lat" : 40.66422022,
      "lon" : 16.61233328,
      "tags" : {
               "operator" : "Giordano Domenico",
               "ref" : "793",
               "beds" : "8",
               "name" : "La Corte dei Pastori",
               "addr:street" : "Via Bruno Buozzi",
               "addr:housenumber" : "4",
               "breakfast"  : "yes",
               "tourism"  : "guest_house"
               }
    }
,
   {
      "id"  : 798,
      "lat" : 40.66441944,
      "lon" : 16.61202094,
      "tags" : {
               "operator" : "Rossella Tosto",
               "ref" : "798",
               "beds" : "2",
               "name" : "Terrazza Casa Mia",
               "addr:street" : "P.Tta S. P. Caveoso",
               "addr:housenumber" : "10",
               "breakfast"  : "yes",
               "tourism"  : "guest_house"
               }
    }
,
   {
      "id"  : 800,
      "lat" : 40.66013145,
      "lon" : 16.6030351,
      "tags" : {
               "operator" : "Sergio Fadini",
               "ref" : "800",
               "beds" : "2",
               "name" : "L'abbabbio",
               "addr:street" : "Via della Quercia",
               "addr:housenumber" : "6",
               "breakfast"  : "yes",
               "tourism"  : "guest_house"
               }
    }
,
   {
      "id"  : 801,
      "lat" : 40.67031207,
      "lon" : 16.60803974,
      "tags" : {
               "operator" : "Arianna Montemurro",
               "ref" : "801",
               "beds" : "2",
               "name" : "La Stanza Sui Sassi",
               "addr:street" : "Via G. Pentasuglia",
               "addr:housenumber" : "11",
               "breakfast"  : "yes",
               "tourism"  : "guest_house"
               }
    }
,
   {
      "id"  : 802,
      "lat" : 40.6475616,
      "lon" : 16.61861613,
      "tags" : {
               "operator" : "Maria Clemente",
               "ref" : "802",
               "beds" : "5",
               "name" : "B&b Green di Maria",
               "addr:street" : "Via Raul Papini",
               "addr:housenumber" : "3",
               "breakfast"  : "yes",
               "tourism"  : "guest_house"
               }
    }
,
   {
      "id"  : 803,
      "lat" : 40.69790575,
      "lon" : 16.58212203,
      "tags" : {
               "operator" : "Colavito Federica",
               "ref" : "803",
               "beds" : "3",
               "name" : "Villa Oasi",
               "addr:street" : "C.Da Serra Paducci",
               "addr:housenumber" : "",
               "breakfast"  : "yes",
               "tourism"  : "guest_house"
               }
    }
,
   {
      "id"  : 804,
      "lat" : 40.67021539,
      "lon" : 16.59636516,
      "tags" : {
               "operator" : "Ilvento Porzia",
               "ref" : "804",
               "beds" : "3",
               "name" : "La Tua Casa A Matera",
               "addr:street" : "Via Lazazzera",
               "addr:housenumber" : "20",
               "breakfast"  : "yes",
               "tourism"  : "guest_house"
               }
    }
,
   {
      "id"  : 805,
      "lat" : 40.66187879,
      "lon" : 16.60902791,
      "tags" : {
               "operator" : "Burgi Cosimo",
               "ref" : "805",
               "beds" : "5",
               "name" : "La Pecora Nera",
               "addr:street" : "Via Chiancalata 4-6",
               "addr:housenumber" : "",
               "breakfast"  : "yes",
               "tourism"  : "guest_house"
               }
    }
,
   {
      "id"  : 806,
      "lat" : 40.66258991,
      "lon" : 16.61135829,
      "tags" : {
               "operator" : "Spagnuolo Angelo Raffaele",
               "ref" : "806",
               "beds" : "2",
               "name" : "Il Palazzotto del Caveoso",
               "addr:street" : "Via B. Buozzi",
               "addr:housenumber" : "39",
               "breakfast"  : "yes",
               "tourism"  : "guest_house"
               }
    }
,
   {
      "id"  : 807,
      "lat" : 40.66288036,
      "lon" : 16.61101668,
      "tags" : {
               "operator" : "Vezzoli Daniele",
               "ref" : "807",
               "beds" : "6",
               "name" : "Slow Living",
               "addr:street" : "Via San F. Paolo Vecchio 22-23",
               "addr:housenumber" : "",
               "breakfast"  : "yes",
               "tourism"  : "guest_house"
               }
    }
,
   {
      "id"  : 808,
      "lat" : 40.67031207,
      "lon" : 16.60803974,
      "tags" : {
               "operator" : "Arianna Montemurro",
               "ref" : "808",
               "beds" : "2",
               "name" : "La Stanza Sui Sassi",
               "addr:street" : "Via G. B. Pentasuglia",
               "addr:housenumber" : "11",
               "breakfast"  : "yes",
               "tourism"  : "guest_house"
               }
    }
,
   {
      "id"  : 809,
      "lat" : 40.64324121,
      "lon" : 16.62494136,
      "tags" : {
               "operator" : "Dartizio Rosalba",
               "ref" : "809",
               "beds" : "4",
               "name" : "Villa Alba",
               "addr:street" : "Via T. Ricciardi",
               "addr:housenumber" : "53",
               "breakfast"  : "yes",
               "tourism"  : "guest_house"
               }
    }
,
   {
      "id"  : 810,
      "lat" : 40.66532461,
      "lon" : 16.61034031,
      "tags" : {
               "operator" : "Partipilo Papalia Anna Rosa",
               "ref" : "810",
               "beds" : "8",
               "name" : "Palazzo Bernardini",
               "addr:street" : "Via Arco del Sedile",
               "addr:housenumber" : "9",
               "breakfast"  : "yes",
               "tourism"  : "guest_house"
               }
    }
,
   {
      "id"  : 811,
      "lat" : 40.63820305,
      "lon" : 16.62320906,
      "tags" : {
               "operator" : "Mannarella Saverio Maria",
               "ref" : "811",
               "beds" : "7",
               "name" : "B&b Zero",
               "addr:street" : "Contrada Agna Senza Numero Civico",
               "addr:housenumber" : "",
               "breakfast"  : "yes",
               "tourism"  : "guest_house"
               }
    }
,
   {
      "id"  : 812,
      "lat" : 40.66751546,
      "lon" : 16.60957076,
      "tags" : {
               "operator" : "Andrisani Francesco Paolo",
               "ref" : "812",
               "beds" : "3",
               "name" : "B & B A Due Passi",
               "addr:street" : "Via San Giovanni Vecchio",
               "addr:housenumber" : "35",
               "breakfast"  : "yes",
               "tourism"  : "guest_house"
               }
    }
,
   {
      "id"  : 813,
      "lat" : 40.67636917,
      "lon" : 16.59623466,
      "tags" : {
               "operator" : "Persia Graziella",
               "ref" : "813",
               "beds" : "3",
               "name" : "Casa Maddalena Due",
               "addr:street" : "Via Vincenzo Pizzilli",
               "addr:housenumber" : "5",
               "breakfast"  : "yes",
               "tourism"  : "guest_house"
               }
    }
,
   {
      "id"  : 814,
      "lat" : 40.6691528,
      "lon" : 16.60137467,
      "tags" : {
               "operator" : "Epifania Valentina",
               "ref" : "814",
               "beds" : "4",
               "name" : "Le Colombine",
               "addr:street" : "Via Dante",
               "addr:housenumber" : "10",
               "breakfast"  : "yes",
               "tourism"  : "guest_house"
               }
    }
,
   {
      "id"  : 819,
      "lat" : 40.66961,
      "lon" : 16.608905,
      "tags" : {
               "operator" : "Pisciotta Vito Michele",
               "ref" : "819",
               "beds" : "2",
               "name" : "Mikasa",
               "addr:street" : "Via Santa Cesarea",
               "addr:housenumber" : "15",
               "breakfast"  : "yes",
               "tourism"  : "guest_house"
               }
    }
,
   {
      "id"  : 820,
      "lat" : 40.667059,
      "lon" : 16.604351,
      "tags" : {
               "operator" : "Spada Fulvio",
               "ref" : "820",
               "beds" : "8",
               "name" : "All'angolo",
               "addr:street" : "Via Lucana",
               "addr:housenumber" : "64",
               "breakfast"  : "yes",
               "tourism"  : "guest_house"
               }
    }
,
   {
      "id"  : 821,
      "lat" : 40.637225,
      "lon" : 16.63143,
      "tags" : {
               "operator" : "Rimedio Maria Teresa",
               "ref" : "821",
               "beds" : "8",
               "name" : "Le Dimore All'ofra",
               "addr:street" : "Contrada Sant'angelo",
               "addr:housenumber" : "",
               "breakfast"  : "yes",
               "tourism"  : "guest_house"
               }
    }
,
   {
      "id"  : 822,
      "lat" : 40.659854,
      "lon" : 16.611347,
      "tags" : {
               "operator" : "Di Cuia Nicola",
               "ref" : "822",
               "beds" : "4",
               "name" : "Donna Gina",
               "addr:street" : "Via Giustino Fortunato",
               "addr:housenumber" : "7",
               "breakfast"  : "yes",
               "tourism"  : "guest_house"
               }
    }
,
   {
      "id"  : 823,
      "lat" : 40.671348,
      "lon" : 16.608568,
      "tags" : {
               "operator" : "Giove Erasmo",
               "ref" : "823",
               "beds" : "3",
               "name" : "4u",
               "addr:street" : "Via Santo Stefano",
               "addr:housenumber" : "41",
               "breakfast"  : "yes",
               "tourism"  : "guest_house"
               }
    }
,
   {
      "id"  : 824,
      "lat" : 40.668761,
      "lon" : 16.606013,
      "tags" : {
               "operator" : "Tripani Domenico Antonio Luca",
               "ref" : "824",
               "beds" : "8",
               "name" : "Xx Settembre",
               "addr:street" : "Via Xx Settembre",
               "addr:housenumber" : "45",
               "breakfast"  : "yes",
               "tourism"  : "guest_house"
               }
    }
,
   {
      "id"  : 825,
      "lat" : 40.672867,
      "lon" : 16.592737,
      "tags" : {
               "operator" : "Bruno Antonello",
               "ref" : "825",
               "beds" : "4",
               "name" : "Nonna Giulia",
               "addr:street" : "Via Dante Alighieri 67 Bis",
               "addr:housenumber" : "",
               "breakfast"  : "yes",
               "tourism"  : "guest_house"
               }
    }
,
   {
      "id"  : 826,
      "lat" : 40.671951,
      "lon" : 16.60841,
      "tags" : {
               "operator" : "Azzone Giovanni",
               "ref" : "826",
               "beds" : "5",
               "name" : "Il Peccato Originale",
               "addr:street" : "Via Santo Stefano",
               "addr:housenumber" : "60",
               "breakfast"  : "yes",
               "tourism"  : "guest_house"
               }
    }
,
   {
      "id"  : 827,
      "lat" : 40.659781,
      "lon" : 16.544787,
      "tags" : {
               "operator" : "Schiuma Giovanni",
               "ref" : "827",
               "beds" : "4",
               "name" : "Villa Mater B&b",
               "addr:street" : "Via Monticchio",
               "addr:housenumber" : "1",
               "breakfast"  : "yes",
               "tourism"  : "guest_house"
               }
    }
,
   {
      "id"  : 828,
      "lat" : 40.672549,
      "lon" : 16.607446,
      "tags" : {
               "operator" : "Giannolo Annalisa",
               "ref" : "828",
               "beds" : "2",
               "name" : "Diomede",
               "addr:street" : "Via Giuseppe Gattini",
               "addr:housenumber" : "49",
               "breakfast"  : "yes",
               "tourism"  : "guest_house"
               }
    }
,
   {
      "id"  : 829,
      "lat" : 40.681142,
      "lon" : 16.580851,
      "tags" : {
               "operator" : "Orsi Stefano",
               "ref" : "829",
               "beds" : "4",
               "name" : "La Casa di Stefano",
               "addr:street" : "Via Virgilio 5 -f-",
               "addr:housenumber" : "",
               "breakfast"  : "yes",
               "tourism"  : "guest_house"
               }
    }
,
   {
      "id"  : 830,
      "lat" : 40.661206,
      "lon" : 16.606776,
      "tags" : {
               "operator" : "Cristiano Anna Maria",
               "ref" : "830",
               "beds" : "2",
               "name" : "Anna Suite Room B&b",
               "addr:street" : "Via Vincenzo Caropreso",
               "addr:housenumber" : "10",
               "breakfast"  : "yes",
               "tourism"  : "guest_house"
               }
    }
,
   {
      "id"  : 831,
      "lat" : 40.636346,
      "lon" : 16.62225,
      "tags" : {
               "operator" : "Iaconis Giovanna",
               "ref" : "831",
               "beds" : "4",
               "name" : "B & B Cuoreverde Matera",
               "addr:street" : "Contradella Giardinetto Gravinella",
               "addr:housenumber" : "",
               "breakfast"  : "yes",
               "tourism"  : "guest_house"
               }
    }
,
   {
      "id"  : 832,
      "lat" : 40.670446,
      "lon" : 16.607716,
      "tags" : {
               "operator" : "D'alema Francesco",
               "ref" : "832",
               "beds" : "4",
               "name" : "Dimora Centrale",
               "addr:street" : "Via Pentasuglia",
               "addr:housenumber" : "27",
               "breakfast"  : "yes",
               "tourism"  : "guest_house"
               }
    }
,
   {
      "id"  : 833,
      "lat" : 40.676722,
      "lon" : 16.578338,
      "tags" : {
               "operator" : "Rosaria Roselli",
               "ref" : "833",
               "beds" : "2",
               "name" : "Il Cantagallo",
               "addr:street" : "Via Taranto",
               "addr:housenumber" : "41",
               "breakfast"  : "yes",
               "tourism"  : "guest_house"
               }
    }
,
   {
      "id"  : 834,
      "lat" : 40.66258,
      "lon" : 16.6114,
      "tags" : {
               "operator" : "Spagnuolo Giuseppe",
               "ref" : "834",
               "beds" : "2",
               "name" : "Il Palazzotto del Caveoso Due",
               "addr:street" : "Via San Francesco Paolo Vecchio 2 E",
               "addr:housenumber" : "3",
               "breakfast"  : "yes",
               "tourism"  : "guest_house"
               }
    }
,
   {
      "id"  : 835,
      "lat" : 40.66784,
      "lon" : 16.61056,
      "tags" : {
               "operator" : "Festa Luca",
               "ref" : "835",
               "beds" : "4",
               "name" : "Gradelle San Nicola",
               "addr:street" : "Gradelle San Nicola del Sole 13/15",
               "addr:housenumber" : "",
               "breakfast"  : "yes",
               "tourism"  : "guest_house"
               }
    }
]
